NORAD_CAT_ID,OBJECT_NAME,OBJECT_TYPE,EPOCH,MEAN_MOTION,ECCENTRICITY,INCLINATION,RA_OF_ASC_NODE,ARG_OF_PERICENTER,MEAN_ANOMALY,BSTAR,MEAN_MOTION_DOT,MEAN_MOTION_DDOT,TLE_LINE0,TLE_LINE1,TLE_LINE2,SEMIMAJOR_AXIS,PERIOD,APOGEE,PERIGEE,DECAYED
49152.0,STARLINK-3081,PAYLOAD,2022-10-04 20:49:26,14.96729045,0.0002678,70.0009,170.7145,261.2039,98.8816,-0.00021467,-2.549e-05,0.0,0 STARLINK-3081,1 49152U 21082Y   22277.86767257 -.00002549  00000-0 -21467-3 0  9997,2 49152  70.0009 170.7145 0002678 261.2039  98.8816 14.96729045 60575,6955.148,96.21,578.876,575.151,0.0
49152.0,STARLINK-3081,PAYLOAD,2022-10-05 01:38:10,14.96716683,0.0002996,69.9998,170.2115,260.8878,99.1942,-0.00022199,-2.632e-05,0.0,0 STARLINK-3081,1 49152U 21082Y   22278.06817467 -.00002632  00000-0 -22199-3 0  9995,2 49152  69.9998 170.2115 0002996 260.8878  99.1942 14.96716683 60613,6955.186,96.211,579.135,574.9680000000002,0.0
49152.0,STARLINK-3081,PAYLOAD,2022-10-05 03:14:24,14.96725287,0.0003071,69.9997,170.0435,261.6911,98.3899,-0.00034887,-4.083e-05,0.0,0 STARLINK-3081,1 49152U 21082Y   22278.13500414 -.00004083  00000-0 -34887-3 0  9993,2 49152  69.9997 170.0435 0003071 261.6911  98.3899 14.96725287 60620,6955.16,96.21,579.161,574.889,0.0
49152.0,STARLINK-3081,PAYLOAD,2022-10-05 20:53:01,14.96716604,0.0003315,69.9994,168.1953,258.205,101.8737,-0.00017733,-2.121e-05,0.0,0 STARLINK-3081,1 49152U 21082Y   22278.87015718 -.00002121  00000-0 -17733-3 0  9994,2 49152  69.9994 168.1953 0003315 258.2050 101.8737 14.96716604 60722,6955.187,96.211,579.357,574.746,0.0
49152.0,STARLINK-3081,PAYLOAD,2022-10-06 01:41:44,14.96712164,0.0003304,69.9989,167.69099999999997,253.4941,106.5854,-1.6547e-05,-2.81e-06,0.0,0 STARLINK-3081,1 49152U 21082Y   22279.07065083 -.00000281  00000-0 -16547-4 0  9995,2 49152  69.9989 167.6910 0003304 253.4941 106.5854 14.96712164 60759,6955.2,96.211,579.363,574.7669999999998,0.0
49152.0,STARLINK-3081,PAYLOAD,2022-10-06 17:44:04,14.96737171,0.0002484,69.9988,166.0099,266.3071,93.7803,0.00034233,3.831e-05,0.0,0 STARLINK-3081,1 49152U 21082Y   22279.73894177  .00003831  00000-0  34233-3 0  9995,2 49152  69.9988 166.0099 0002484 266.3071  93.7803 14.96737171 60862,6955.123000000001,96.209,578.716,575.26,0.0
49152.0,STARLINK-3081,PAYLOAD,2022-10-06 19:19:56,14.97028599,0.0003372,69.9989,165.8408,242.5245,117.5571,0.0037259,0.00043165,0.0,0 STARLINK-3081,1 49152U 21082Y   22279.80551735  .00043165  00000-0  37259-2 0  9997,2 49152  69.9989 165.8408 0003372 242.5245 117.5571 14.97028599 60865,6954.22,96.191,578.43,573.74,0.0
49152.0,STARLINK-3081,PAYLOAD,2022-10-07 01:44:38,14.97163689,0.0003678,69.9988,165.1694,242.3304,117.7481,0.0049965,0.00058245,0.0,0 STARLINK-3081,1 49152U 21082Y   22280.07266502  .00058245  00000-0  49965-2 0  9995,2 49152  69.9988 165.1694 0003678 242.3304 117.7481 14.97163689 60915,6953.802,96.182,578.225,573.109,0.0
49152.0,STARLINK-3081,PAYLOAD,2022-10-07 09:45:25,14.97360504,0.0004293,69.9991,164.3285,242.7075,117.3647,0.0067126,0.00078916,0.0,0 STARLINK-3081,1 49152U 21082Y   22280.40654342  .00078916  00000-0  67126-2 0  9991,2 49152  69.9991 164.3285 0004293 242.7075 117.3647 14.97360504 60969,6953.193,96.169,578.043,572.073,0.0
49152.0,STARLINK-3081,PAYLOAD,2022-10-07 20:58:22,14.97670094,0.0003086,69.9999,163.1528,269.0104,91.0701,0.0090802,0.00108082,0.0,0 STARLINK-3081,1 49152U 21082Y   22280.87387262  .00108082  00000-0  90802-2 0  9991,2 49152  69.9999 163.1528 0003086 269.0104  91.0701 14.97670094 61034,6952.234,96.149,576.245,571.9540000000002,0.0
49152.0,STARLINK-3081,PAYLOAD,2022-10-08 03:23:03,14.97717786,0.0003441999999999,69.9994,162.4815,271.1476,88.9288,0.0088317999999999,0.0010520999999999,0.0,0 STARLINK-3081,1 49152U 21082Y   22281.14100775  .00105210  00000-0  88318-2 0  9993,2 49152  69.9994 162.4815 0003442 271.1476  88.9288 14.97717786 61071,6952.087,96.146,576.345,571.559,0.0
49152.0,STARLINK-3081,PAYLOAD,2022-10-08 09:47:42,14.97764587,0.0003412,69.9994,161.8091,237.7933,122.2895,0.0086378999999999,0.0010299,0.0,0 STARLINK-3081,1 49152U 21082Y   22281.40812554  .00102990  00000-0  86379-2 0  9994,2 49152  69.9994 161.8091 0003412 237.7933 122.2895 14.97764587 61115,6951.941999999999,96.143,576.179,571.435,0.0
49152.0,STARLINK-3081,PAYLOAD,2022-10-08 19:24:38,14.9800559,0.0003636,69.9998,160.8006,266.6923,93.382,0.0049478,0.00058948,0.0,0 STARLINK-3081,1 49152U 21082Y   22281.80878385  .00058948  00000-0  49478-2 0  9994,2 49152  69.9998 160.8006 0003636 266.6923  93.3820 14.98005590 61177,6951.196,96.128,575.589,570.534,0.0
49152.0,STARLINK-3081,PAYLOAD,2022-10-09 03:25:23,14.98031274,0.0003498999999999,69.9994,159.9577,260.5935,99.4829,0.0046431999999999,0.00055321,0.0,0 STARLINK-3081,1 49152U 21082Y   22282.14263723  .00055321  00000-0  46432-2 0  9995,2 49152  69.9994 159.9577 0003499 260.5935  99.4829 14.98031274 61228,6951.1169999999975,96.126,575.414,570.55,0.0
49152.0,STARLINK-3081,PAYLOAD,2022-10-09 09:49:57,14.98085351,0.0003431,69.9985,159.2867,243.2997,116.7811,0.003978,0.00047394,0.0,0 STARLINK-3081,1 49152U 21082Y   22282.40969865  .00047394  00000-0  39780-2 0  9993,2 49152  69.9985 159.2867 0003431 243.2997 116.7811 14.98085351 61268,6950.95,96.123,575.1990000000002,570.43,0.0
49152.0,STARLINK-3081,PAYLOAD,2022-10-09 19:26:43,14.98334729,0.0003308,69.9991,158.2759,257.9525,102.1263,-4.6492e-05,-6.48e-06,0.0,0 STARLINK-3081,1 49152U 21082Y   22282.81022205 -.00000648  00000-0 -46492-4 0  9999,2 49152  69.9991 158.2759 0003308 257.9525 102.1263 14.98334729 61329,6950.178000000001,96.107,574.342,569.744,0.0
49152.0,STARLINK-3081,PAYLOAD,2022-10-09 21:02:51,14.98336908,0.0003162,69.9989,158.1072,257.63,102.4505,-2.4482e-05,-3.85e-06,0.0,0 STARLINK-3081,1 49152U 21082Y   22282.87698002 -.00000385  00000-0 -24482-4 0  9992,2 49152  69.9989 158.1072 0003162 257.6300 102.4505 14.98336908 61322,6950.172,96.107,574.234,569.839,0.0
49152.0,STARLINK-3081,PAYLOAD,2022-10-10 03:27:23,14.9833376,0.0003031,69.9992,157.4349,257.558,102.524,-0.0001220999999999,-1.55e-05,0.0,0 STARLINK-3081,1 49152U 21082Y   22283.14402368 -.00001550  00000-0 -12210-3 0  9991,2 49152  69.9992 157.4349 0003031 257.5580 102.5240 14.98333760 61363,6950.181,96.107,574.153,569.94,0.0
49152.0,STARLINK-3081,PAYLOAD,2022-10-11 01:53:16,14.98322761,0.000292,69.999,155.0782,257.4826,102.6006,-2.6136e-05,-4.05e-06,0.0,0 STARLINK-3081,1 49152U 21082Y   22284.07866763 -.00000405  00000-0 -26136-4 0  9998,2 49152  69.9990 155.0782 0002920 257.4826 102.6006 14.98322761 61511,6950.215,96.107,574.11,570.0509999999998,0.0
49152.0,STARLINK-3081,PAYLOAD,2022-10-12 01:55:19,14.98317201,0.0002543,69.9994,152.5526,268.3392,91.7476,-0.00010029,-1.289e-05,0.0,0 STARLINK-3081,1 49152U 21082Y   22285.08008262 -.00001289  00000-0 -10029-3 0  9996,2 49152  69.9994 152.5526 0002543 268.3392  91.7476 14.98317201 61661,6950.232,96.108,573.865,570.33,0.0
49152.0,STARLINK-3081,PAYLOAD,2022-10-12 08:19:50,14.98325023,0.0002693,69.9997,151.8804,255.5618,104.5243,-9.079e-05,-1.176e-05,0.0,0 STARLINK-3081,1 49152U 21082Y   22285.34711737 -.00001176  00000-0 -90790-4 0  9992,2 49152  69.9997 151.8804 0002693 255.5618 104.5243 14.98325023 61701,6950.208000000001,96.107,573.945,570.202,0.0
49152.0,STARLINK-3081,PAYLOAD,2022-10-12 19:32:47,14.98322412,0.0002953,69.9994,150.7022,252.9226,107.161,0.00012746,1.428e-05,0.0,0 STARLINK-3081,1 49152U 21082Y   22285.81443432  .00001428  00000-0  12746-3 0  9990,2 49152  69.9994 150.7022 0002953 252.9226 107.1610 14.98322412 61765,6950.215999999999,96.107,574.134,570.029,0.0
49152.0,STARLINK-3081,PAYLOAD,2022-10-13 01:57:19,14.98324817,0.0002878,69.9993,150.0285,253.2452,106.8391,0.00014338,1.618e-05,0.0,0 STARLINK-3081,1 49152U 21082Y   22286.08147388  .00001618  00000-0  14338-3 0  9991,2 49152  69.9993 150.0285 0002878 253.2452 106.8391 14.98324817 61818,6950.209,96.107,574.0740000000002,570.0740000000002,0.0
49152.0,STARLINK-3081,PAYLOAD,2022-10-13 21:10:55,14.98329797,0.00028,69.9963,148.004,253.474,106.6111,0.000269,3.118e-05,0.0,0 STARLINK-3081,1 49152U 21082Y   22286.88258724  .00003118  00000-0  26900-3 0  9991,2 49152  69.9963 148.0040 0002800 253.4740 106.6111 14.98329797 61920,6950.194,96.107,574.005,570.112,0.0
49152.0,STARLINK-3081,PAYLOAD,2022-10-14 01:59:19,14.9833118,0.0002785,69.9976,147.5016,257.0346,103.0502,0.00019722,2.261e-05,0.0,0 STARLINK-3081,1 49152U 21082Y   22287.08286907  .00002261  00000-0  19722-3 0  9990,2 49152  69.9976 147.5016 0002785 257.0346 103.0502 14.98331180 61963,6950.189,96.107,573.99,570.119,0.0
49152.0,STARLINK-3081,PAYLOAD,2022-10-14 08:23:52,14.9832462,0.0002904,69.9983,146.83,255.1227,104.9611,2.0258e-05,1.49e-06,0.0,0 STARLINK-3081,1 49152U 21082Y   22287.34991756  .00000149  00000-0  20258-4 0  9994,2 49152  69.9983 146.8300 0002904 255.1227 104.9611 14.98324620 62007,6950.21,96.107,574.0930000000002,570.056,0.0
49152.0,STARLINK-3081,PAYLOAD,2022-10-14 21:12:55,14.98345971,0.000356,69.9976,145.4821,262.215,97.8605,0.00014097,1.59e-05,0.0,0 STARLINK-3081,1 49152U 21082Y   22287.88397949  .00001590  00000-0  14097-3 0  9991,2 49152  69.9976 145.4821 0003560 262.2150  97.8605 14.98345971 62077,6950.144,96.106,574.4830000000002,569.534,0.0
49152.0,STARLINK-3081,PAYLOAD,2022-10-15 00:25:10,14.98367719,0.0003007,69.9976,145.1461,254.6182,105.4645,0.00036818,4.307e-05,0.0,0 STARLINK-3081,1 49152U 21082Y   22288.01747782  .00004307  00000-0  36818-3 0  9995,2 49152  69.9976 145.1461 0003007 254.6182 105.4645 14.98367719 62108,6950.076,96.105,574.031,569.851,0.0
49152.0,STARLINK-3081,PAYLOAD,2022-10-15 13:14:16,14.98342044,0.0002873,69.9975,143.7985,259.1567,100.9269,-7.505500000000002e-07,-1.02e-06,0.0,0 STARLINK-3081,1 49152U 21082Y   22288.55157695 -.00000102  00000-0 -75055-6 0  9992,2 49152  69.9975 143.7985 0002873 259.1567 100.9269 14.98342044 62172,6950.156,96.106,574.0169999999998,570.024,0.0
